{
  "type": "FeatureCollection",
  "features": [
    {
      "type": "Feature",
      "properties": {
        "norad_id": 15362,
        "name": "NOVA 3",
        "group": "nnss",
        "lat": 56.27593434525907,
        "lon": 80.43470068815924,
        "alt_km": 1173.4238426642942,
        "timestamp": "2025-12-19T18:58:41.856565+00:00",
        "meta_object_name": "NOVA 3",
        "meta_object_id": "1984-110A",
        "meta_epoch": "2025-12-19T06:15:39.981024",
        "meta_mean_motion": 13.23045253,
        "meta_eccentricity": 0.00300483,
        "meta_inclination": 90.1221,
        "meta_ra_of_asc_node": 80.6115,
        "meta_arg_of_pericenter": 313.2498,
        "meta_mean_anomaly": 100.3997,
        "meta_ephemeris_type": 0,
        "meta_classification_type": "U",
        "meta_norad_cat_id": 15362,
        "meta_element_set_no": 999,
        "meta_rev_at_epoch": 98785,
        "meta_bstar": 9.5268173e-05,
        "meta_mean_motion_dot": 4.8e-07,
        "meta_mean_motion_ddot": 0,
        "tle_line1": "1 15362U 84110A   25353.26087941  .00000048  00000+0  95268-4 0  9991",
        "tle_line2": "2 15362  90.1221  80.6115 0030048 313.2498 100.3997 13.23045253987854"
      },
      "geometry": {
        "type": "Point",
        "coordinates": [
          80.43470068815924,
          56.27593434525907
        ]
      }
    },
    {
      "type": "Feature",
      "properties": {
        "norad_id": 15935,
        "name": "OSCAR 30",
        "group": "nnss",
        "lat": 71.4624618724595,
        "lon": -79.54334138531618,
        "alt_km": 1025.1888658142725,
        "timestamp": "2025-12-19T18:58:41.856575+00:00",
        "meta_object_name": "OSCAR 30",
        "meta_object_id": "1985-066A",
        "meta_epoch": "2025-12-19T06:00:30.951936",
        "meta_mean_motion": 13.36079241,
        "meta_eccentricity": 0.01692422,
        "meta_inclination": 90.1656,
        "meta_ra_of_asc_node": 99.9537,
        "meta_arg_of_pericenter": 65.7372,
        "meta_mean_anomaly": 323.6687,
        "meta_ephemeris_type": 0,
        "meta_classification_type": "U",
        "meta_norad_cat_id": 15935,
        "meta_element_set_no": 999,
        "meta_rev_at_epoch": 96540,
        "meta_bstar": 0.00010997236,
        "meta_mean_motion_dot": 7.1e-07,
        "meta_mean_motion_ddot": 0,
        "tle_line1": "1 15935U 85066A   25353.25035824  .00000071  00000+0  10997-3 0  9991",
        "tle_line2": "2 15935  90.1656  99.9537 0169242  65.7372 323.6687 13.36079241965403"
      },
      "geometry": {
        "type": "Point",
        "coordinates": [
          -79.54334138531618,
          71.4624618724595
        ]
      }
    },
    {
      "type": "Feature",
      "properties": {
        "norad_id": 15936,
        "name": "OSCAR 24",
        "group": "nnss",
        "lat": -0.843810514875647,
        "lon": -87.57254784036566,
        "alt_km": 1169.4603875702678,
        "timestamp": "2025-12-19T18:58:41.856586+00:00",
        "meta_object_name": "OSCAR 24",
        "meta_object_id": "1985-066B",
        "meta_epoch": "2025-12-19T05:39:09.152640",
        "meta_mean_motion": 13.35936599,
        "meta_eccentricity": 0.01703727,
        "meta_inclination": 90.1792,
        "meta_ra_of_asc_node": 92.4203,
        "meta_arg_of_pericenter": 72.2157,
        "meta_mean_anomaly": 317.8855,
        "meta_ephemeris_type": 0,
        "meta_classification_type": "U",
        "meta_norad_cat_id": 15936,
        "meta_element_set_no": 999,
        "meta_rev_at_epoch": 96730,
        "meta_bstar": 9.8903992e-05,
        "meta_mean_motion_dot": 6.5e-07,
        "meta_mean_motion_ddot": 0,
        "tle_line1": "1 15936U 85066B   25353.23552260  .00000065  00000+0  98904-4 0  9996",
        "tle_line2": "2 15936  90.1792  92.4203 0170372  72.2157 317.8855 13.35936599967303"
      },
      "geometry": {
        "type": "Point",
        "coordinates": [
          -87.57254784036566,
          -0.843810514875647
        ]
      }
    },
    {
      "type": "Feature",
      "properties": {
        "norad_id": 17070,
        "name": "POLAR BEAR",
        "group": "nnss",
        "lat": -68.63611628392975,
        "lon": -177.48851880400323,
        "alt_km": 1017.7662626176643,
        "timestamp": "2025-12-19T18:58:41.856596+00:00",
        "meta_object_name": "POLAR BEAR",
        "meta_object_id": "1986-088A",
        "meta_epoch": "2025-12-19T02:24:07.959168",
        "meta_mean_motion": 13.75252112,
        "meta_eccentricity": 0.00412417,
        "meta_inclination": 89.617,
        "meta_ra_of_asc_node": 183.5191,
        "meta_arg_of_pericenter": 100.9243,
        "meta_mean_anomaly": 13.2259,
        "meta_ephemeris_type": 0,
        "meta_classification_type": "U",
        "meta_norad_cat_id": 17070,
        "meta_element_set_no": 999,
        "meta_rev_at_epoch": 96066,
        "meta_bstar": 0.00010305896,
        "meta_mean_motion_dot": 1.11e-06,
        "meta_mean_motion_ddot": 0,
        "tle_line1": "1 17070U 86088A   25353.10009212  .00000111  00000+0  10306-3 0  9993",
        "tle_line2": "2 17070  89.6170 183.5191 0041241 100.9243  13.2259 13.75252112960665"
      },
      "geometry": {
        "type": "Point",
        "coordinates": [
          -177.48851880400323,
          -68.63611628392975
        ]
      }
    },
    {
      "type": "Feature",
      "properties": {
        "norad_id": 18361,
        "name": "OSCAR 27",
        "group": "nnss",
        "lat": 41.20144552870399,
        "lon": -100.13613009180678,
        "alt_km": 1054.171560400625,
        "timestamp": "2025-12-19T18:58:41.856607+00:00",
        "meta_object_name": "OSCAR 27",
        "meta_object_id": "1987-080A",
        "meta_epoch": "2025-12-19T05:47:02.719680",
        "meta_mean_motion": 13.44907986,
        "meta_eccentricity": 0.01034335,
        "meta_inclination": 90.3741,
        "meta_ra_of_asc_node": 79.5156,
        "meta_arg_of_pericenter": 205.0332,
        "meta_mean_anomaly": 154.5781,
        "meta_ephemeris_type": 0,
        "meta_classification_type": "U",
        "meta_norad_cat_id": 18361,
        "meta_element_set_no": 999,
        "meta_rev_at_epoch": 87644,
        "meta_bstar": 0.00014950841,
        "meta_mean_motion_dot": 9.9e-07,
        "meta_mean_motion_ddot": 0,
        "tle_line1": "1 18361U 87080A   25353.24100370  .00000099  00000+0  14951-3 0  9997",
        "tle_line2": "2 18361  90.3741  79.5156 0103433 205.0332 154.5781 13.44907986876448"
      },
      "geometry": {
        "type": "Point",
        "coordinates": [
          -100.13613009180678,
          41.20144552870399
        ]
      }
    },
    {
      "type": "Feature",
      "properties": {
        "norad_id": 18362,
        "name": "OSCAR 29",
        "group": "nnss",
        "lat": 40.751376186049335,
        "lon": -99.68100458720434,
        "alt_km": 1085.4319925214404,
        "timestamp": "2025-12-19T18:58:41.856631+00:00",
        "meta_object_name": "OSCAR 29",
        "meta_object_id": "1987-080B",
        "meta_epoch": "2025-12-19T06:02:44.034720",
        "meta_mean_motion": 13.4444955,
        "meta_eccentricity": 0.01042993,
        "meta_inclination": 90.3752,
        "meta_ra_of_asc_node": 79.9753,
        "meta_arg_of_pericenter": 228.2704,
        "meta_mean_anomaly": 185.522,
        "meta_ephemeris_type": 0,
        "meta_classification_type": "U",
        "meta_norad_cat_id": 18362,
        "meta_element_set_no": 999,
        "meta_rev_at_epoch": 87597,
        "meta_bstar": 0.00013817433,
        "meta_mean_motion_dot": 9.1e-07,
        "meta_mean_motion_ddot": 0,
        "tle_line1": "1 18362U 87080B   25353.25189855  .00000091  00000+0  13817-3 0  9996",
        "tle_line2": "2 18362  90.3752  79.9753 0104299 228.2704 185.5220 13.44449550875976"
      },
      "geometry": {
        "type": "Point",
        "coordinates": [
          -99.68100458720434,
          40.751376186049335
        ]
      }
    },
    {
      "type": "Feature",
      "properties": {
        "norad_id": 19070,
        "name": "OSCAR 23",
        "group": "nnss",
        "lat": -35.227993209260354,
        "lon": -163.61533989096466,
        "alt_km": 1077.020819101749,
        "timestamp": "2025-12-19T18:58:41.856643+00:00",
        "meta_object_name": "OSCAR 23",
        "meta_object_id": "1988-033A",
        "meta_epoch": "2025-12-19T03:47:26.804832",
        "meta_mean_motion": 13.27788264,
        "meta_eccentricity": 0.01900588,
        "meta_inclination": 90.3206,
        "meta_ra_of_asc_node": 16.5915,
        "meta_arg_of_pericenter": 162.0987,
        "meta_mean_anomaly": 268.1563,
        "meta_ephemeris_type": 0,
        "meta_classification_type": "U",
        "meta_norad_cat_id": 19070,
        "meta_element_set_no": 999,
        "meta_rev_at_epoch": 82338,
        "meta_bstar": 0.00020915497,
        "meta_mean_motion_dot": 1.13e-06,
        "meta_mean_motion_ddot": 0,
        "tle_line1": "1 19070U 88033A   25353.15794913  .00000113  00000+0  20915-3 0  9990",
        "tle_line2": "2 19070  90.3206  16.5915 0190058 162.0987 268.1563 13.27788264823385"
      },
      "geometry": {
        "type": "Point",
        "coordinates": [
          -163.61533989096466,
          -35.227993209260354
        ]
      }
    }
  ]
}